#dP2021  1 28  0  0  0.00000000      97 __u+U IGS14 FIT  IAC
## 2142 345600.00000000   900.00000000 59242 0.0000000000000
+  123   C01C02C03C04C05C06C07C08C09C10C11C12C13C14C16C19C20
+        C21C22C23C24C25C26C27C28C29C30C32C33C34C35C36C37C38
+        C39C40C41C42C43C44C45C46E01E02E03E04E05E07E08E09E11
+        E12E13E14E15E18E19E21E24E25E26E27E30E31E33E36G01G02
+        G03G04G05G06G07G08G09G10G11G12G13G14G15G16G17G18G19
+        G20G21G22G23G24G25G26G27G28G29G30G31G32J01J02J03J07
+        R01R02R03R04R05R07R08R09R11R12R13R14R15R16R17R18R19
+        R20R21R22R24  0  0  0  0  0  0  0  0  0  0  0  0  0
++        13 13  0 13 13  8  8  8  8  8  8  8  8  7  8  7  7
++         7  7  7  7  7  7  7  7  7  7  7  8  8  7  7  8  8
++         8  8  8  8  8  8  8  8  4  4  4  5  4  4  4  4  5
++         4  4  4  4  4  5  4  4  4  4  4  5  4  4  4  3  4
++         3  3  4  3  3  3  4  3  4  3  3  3  3  4  3  3  3
++         3  3  3  3  3  3  4  5  3  3  3  4  3  8  8  8 13
++         6  5  5  5  5  5  5 11  7  5  6  5  5  6  5  6  6
++         6  6  6  6  0  0  0  0  0  0  0  0  0  0  0  0  0
%c M  cc GPS ccc cccc cccc cccc cccc ccccc ccccc ccccc ccccc
%c cc cc ccc ccc cccc cccc cccc cccc ccccc ccccc ccccc ccccc
%f  1.2500000  1.025000000  0.00000000000  0.000000000000000
%f  0.0000000  0.000000000  0.00000000000  0.000000000000000
%i    0    0    0    0      0      0      0      0         0
%i    0    0    0    0      0      0      0      0         0
/* INFORMATION & ANALYSIS CENTER (IAC)            FINAL DATA
/* S/V CLOCKS ARE ALIGNED TO GNSS TIME                      
/* G:C1WC2W R:C1PC2P E:C1XC5X C:C2IC6I J:C1CC2S             
/* PCV:IGS14_2134 OL/AL:FES2004  NONE     YN ORB:CoN CLK:CoN
*  2021 01 28  5 15  0.00000000
PC01 -34410.156322  24398.489837    213.248269   -710.793064
PC02   4465.384796  41899.997424   -525.404057    559.199675
PC03 -14637.571199  39533.247115  -1344.964233 999999.999999
PC04 -39666.782396  14320.749376   -486.233102   -496.378748
PC05  21936.878050  35995.289795   -336.070862   -640.425129
PC06 -22210.099625  28270.177091  22079.344131     41.577574
PC07 -11596.456914  38050.585300  14952.308048   -269.828910
PC08  -8747.698499  19637.110002 -36130.840041   -925.074093
PC09  -7499.327006  27461.062028  31228.658905    773.287756
PC10  -2321.277990  42176.834282   3874.941645    -96.328807
PC11  19594.077404   6971.279032 -18518.138960   -916.483426
PC12   1015.897117  15562.700792 -23099.920967    758.766886
PC13   6758.067653  27551.247391 -30979.946270    116.836386
PC14  11676.940090  14471.358908  20847.178737      2.637034
PC16 -21744.071354  28211.617929  22490.814114   -674.670312
PC19 -15402.935807  -3812.026333 -22932.771554    706.912795
PC20  -6866.749588 -21531.650385 -16341.293865   -911.028834
PC21  -6224.180853  27210.561443   -326.976007   -811.887407
PC22 -15291.970437  16626.585173 -16399.731613   -859.249634
PC23  16361.265790  -6026.910299 -21787.706979   -878.336255
PC24  16092.003302  21723.785625   6838.102153   -749.255209
PC25  23453.051805  10138.727893 -11200.075910   -912.981340
PC26   1081.081450  19730.626266  19680.327458    956.698313
PC27   9714.933484 -17116.319160  19778.366238    473.747565
PC28  24802.795545 -11446.682060   5703.321172   -116.446445
PC29 -25343.910615     35.857870  11674.202831    344.565112
PC30 -11016.054288 -12596.886388  22328.918620    437.137274
PC32   6054.672129 -27236.320094    382.806599   -887.303367
PC33  15437.069275   3862.409242  22928.407190   -936.753608
PC34  11731.925773  12303.841163 -22136.892886   -753.132262
PC35 -24508.375966  12153.679371  -5413.997316   -445.025590
PC36 -23232.236310 -10955.758477  10935.616220   -767.254535
PC37    119.430602 -19401.324478 -20054.077832   -861.548697
PC38  -7628.011463  22914.923874 -34518.063715    126.552822
PC39 -18832.430671  29667.336108  23207.102012     27.877699
PC40  -8510.557356  40665.002491   7658.494594    125.713613
PC41  15364.537210 -16392.499296  16604.086196   -932.228016
PC42   6523.037012  22024.801057  15893.845110   -827.777384
PC43  25202.115808    470.865740 -12002.742560   -571.895117
PC44  -9265.309729  17531.539238 -19622.482161      9.194332
PC45 -16253.154268   6005.028509  21879.165666    346.915402
PC46 -16760.906447 -21491.689024  -6095.350671    431.910341
PE01   2205.239571 -24784.068426 -16044.101988  -1034.020587
PE02  -2133.718551  24820.931489  15964.912931    194.241857
PE03 -13140.245330  25240.428151   8165.636466   -392.223648
PE04  -3792.147429 -19708.685963 -21757.383341   -697.905061
PE05 -22600.537079  16032.403905 -10412.458456   -309.287868
PE07  18788.221207   2439.721274  22741.383662   -493.394313
PE08   4057.695990  19418.470104  21968.535500   6055.513844
PE09 -18783.976036  -2086.876280 -22785.658480   5784.517642
PE11 -28250.123134  -7458.593472   4690.805030   6404.509335
PE12 -13798.014118 -15921.182642  20793.412205   5384.783337
PE13  28165.382488   7566.555347  -5070.179535    411.056683
PE14  19097.262742   9692.250801 -22952.813987  -1309.990930
PE15  13945.636800  15784.048109 -20784.755329    832.139606
PE18 -22473.261857   3153.647344  12074.208575  -1431.852136
PE19  14805.980644 -24896.533878  -6106.451356    189.412781
PE21  14340.877712  -8527.650208 -24453.737689   -645.276390
PE24 -18484.033800 -13933.126621  18453.625143   -712.993258
PE25 -14433.814732   8314.350222  24471.160980   -525.238172
PE26  25438.940812  -5484.164159  14115.900300   2214.621584
PE27  18567.103257  13188.518504 -18897.934424     41.942240
PE30  11291.988111  27305.860521  -1544.678042   3227.546784
PE31 -11863.688011 -27029.627535   2275.960499   -477.759154
PE33   8475.551940 -14709.287498  24262.086766   -465.218730
PE36 -25803.832916   5066.741260 -13571.469895    448.355026
PG01  20904.408911  14527.601798  -8406.342571    772.373456
PG02     89.397915 -15973.524369  21880.191044   -570.769099
PG03  12819.063829  18109.082328  14597.311753    -67.776981
PG04  12891.385715   9069.387189  21386.471968   -176.072621
PG05  -3086.762322 -26156.977321   2397.986967    -32.155379
PG06  14498.834651  -8943.069337  20456.634172     -4.119364
PG07  25444.819962   5934.171291  -5712.200788     37.966295
PG08   6174.131470  14136.730501 -21582.836278     -8.204332
PG09  20894.332834  -2286.729642  16185.415365   -317.279274
PG10 -12470.752714  11291.430156 -20380.163684    -48.917329
PG11  14156.276903  12971.099209 -18660.268104    -40.760393
PG12  -9519.768922 -21890.000802  11561.044138      6.882113
PG13   5295.066980 -18194.874419 -18696.767794     90.751376
PG14  13729.278443  -9218.427302 -20792.774548     91.457284
PG15  -8870.860942 -13647.637751 -21308.758241   -173.335636
PG16   -746.529669  26057.329300   3299.797544   -271.553088
PG17  22091.184794 -14660.401902  -1031.452694    385.807522
PG18 -24769.965993  -3766.560344  -8906.277366    344.170814
PG19  19442.011387 -16967.532924   5804.814724    -46.109830
PG20 -16483.089608  -1666.194480 -20861.501351    524.962776
PG21  15839.463496  15503.400657 -14201.671902     90.639451
PG22  10963.353468  23366.347364   6823.749136   -690.257023
PG23 -15392.364002   -616.869535 -21663.334489    117.476811
PG24 -17993.366649 -15474.842971 -12550.666674      3.083237
PG25 -15192.989999  -8946.053825  19694.487572     68.776579
PG26  -6080.911145  21682.271624  13826.433641     36.454479
PG27  -6960.235571  19662.405109 -16378.598313    -64.896052
PG28  12410.498184 -12677.177907 -19265.303669    623.666870
PG29 -20531.368789    503.822415  16827.250079   -284.131702
PG30  21310.215845  -3346.968484 -15593.861352   -375.855331
PG31 -12684.207899  10577.631532  20813.881946    -96.585054
PG32 -20966.060794  16128.193428   -846.099418     16.431780
PJ01 -24335.466391  31987.257433  -8238.938842   -338.093354
PJ02 -25495.694815  22355.609968  29953.104122      1.173902
PJ03 -34586.685022  20662.363704  -7890.175905     -0.307538
PJ07 -25388.861785  33648.060646     26.254860      0.070479
PR01  11554.754363    633.306322  22729.652955     74.132836
PR02  13636.993325 -18843.113855  10579.720601    464.678965
PR03   6631.056997 -23693.124278  -6799.267357     29.923678
PR04  -3864.128112 -15018.782865 -20231.902067     71.804251
PR05 -12220.892686   1955.499031 -22292.894913     65.517557
PR07  -6215.866555  23548.754848   7537.543429    -42.275295
PR08   4038.869269  15000.591225  20275.958510    -57.093096
PR09  -8308.820358   7664.140775  22881.308049     20.989943
PR11  15736.751950  20078.192385   -289.474871      4.088515
PR12  16886.441023   9119.826722 -16766.189160    200.285435
PR13   8434.331617  -7061.056719 -23034.428550    -49.914411
PR14  -5295.011169 -19473.461905 -15590.062788     60.348498
PR15 -15578.639746 -20192.050785    704.045928    105.696836
PR16 -17027.099107  -8024.869217  17258.514760    -10.665472
PR17   5310.119186 -10900.225041  22451.593971    395.083241
PR18 -12830.111407  -7893.988313  20588.881739     64.678351
PR19 -24030.917044  -1674.457779   8398.622110   -129.712467
PR20 -21714.166114   6924.418539 -11394.006125   -432.094221
PR21  -4168.750308  10784.360387 -22732.637894   -183.538893
PR22  14019.551509   7503.909570 -19985.834463    -94.825830
PR24  21174.518797  -7710.113022  11965.725745     29.403408
EOF
